STARLINK-35475          
1 65865U 25223M   25300.14653948  .00106259  00000+0  18897-2 0  9991
2 65865  53.1589 197.0148 0000849  94.9374 265.1732 15.49354502  3726
STARLINK-35312          
1 65866U 25223N   25300.14619619  .00127532  00000+0  22587-2 0  9997
2 65866  53.1585 197.0121 0002344 128.8569 231.2649 15.49372444  3725
STARLINK-35456          
1 65867U 25223P   25300.14585350  .00097111  00000+0  17303-2 0  9991
2 65867  53.1587 197.0095 0001149  89.4378 270.6762 15.49344920  3721
STARLINK-35450          
1 65868U 25223Q   25300.16668980  .00118462  00000+0  29387-2 0  9993
2 65868  53.1588 196.9792 0001565  63.7239  19.1082 15.39485457  5002
STARLINK-35441          
1 65869U 25223R   25300.16668980  .00107652  00000+0  26688-2 0  9994
2 65869  53.1588 197.0294 0001116  86.7063 330.2003 15.39559086  5004
STARLINK-35433          
1 65870U 25223S   25300.16668980 -.01995751  00000+0 -45098-1 0  9999
2 65870  53.1588 196.9075 0001082  64.4175  53.4739 15.46007287  5009
STARLINK-35465          
1 65871U 25223T   25300.16668980 -.01685118  00000+0 -43151-1 0  9991
2 65871  53.1591 196.9333 0001010 104.3512   1.0118 15.42333937  5001
STARLINK-34108          
1 65872U 25223U   25300.14379208  .00089942  00000+0  16045-2 0  9995
2 65872  53.1594 196.9955 0001138  94.7609 265.3530 15.49347652  3721
STARLINK-35423          
1 65873U 25223V   25300.14344988  .00089055  00000+0  15893-2 0  9998
2 65873  53.1595 196.9930 0001198  84.8727 275.2418 15.49341122  3724
STARLINK-35425          
1 65874U 25223W   25300.14415355 -.00014777  00000+0 -25911-3 0  9990
2 65874  53.1594 196.9983 0000418  60.5923 299.5128 15.49204393  3720
STARLINK-34688          
1 65875U 25223X   25300.14310507  .00084285  00000+0  15053-2 0  9998
2 65875  53.1588 196.9907 0001116  94.7574 265.3562 15.49344243  3729
STARLINK-34438          
1 65876U 25223Y   25300.14276188  .00086074  00000+0  15368-2 0  9992
2 65876  53.1590 196.9892 0001150  94.1562 265.9578 15.49344218  3720
