CCSDS_OMM_VERS = 2.0
CREATION_DATE  = 
ORIGINATOR     = 

OBJECT_NAME    = STARLINK-35475
OBJECT_ID      = 2025-223M
CENTER_NAME    = EARTH
REF_FRAME      = TEME
TIME_SYSTEM    = UTC
MEAN_ELEMENT_THEORY = SGP/SGP4

EPOCH          = 2025-10-27T03:31:01.011072
MEAN_MOTION    = 15.49354502
ECCENTRICITY   = .0000849
INCLINATION    = 53.1589
RA_OF_ASC_NODE = 197.0148
ARG_OF_PERICENTER = 94.9374
MEAN_ANOMALY   = 265.1732

EPHEMERIS_TYPE = 0
CLASSIFICATION_TYPE = U
NORAD_CAT_ID   = 65865
ELEMENT_SET_NO = 999
REV_AT_EPOCH   = 372
BSTAR          = .18897E-2
MEAN_MOTION_DOT = .106259E-2
MEAN_MOTION_DDOT = 0

CCSDS_OMM_VERS = 2.0
CREATION_DATE  = 
ORIGINATOR     = 

OBJECT_NAME    = STARLINK-35312
OBJECT_ID      = 2025-223N
CENTER_NAME    = EARTH
REF_FRAME      = TEME
TIME_SYSTEM    = UTC
MEAN_ELEMENT_THEORY = SGP/SGP4

EPOCH          = 2025-10-27T03:30:31.350816
MEAN_MOTION    = 15.49372444
ECCENTRICITY   = .0002344
INCLINATION    = 53.1585
RA_OF_ASC_NODE = 197.0121
ARG_OF_PERICENTER = 128.8569
MEAN_ANOMALY   = 231.2649

EPHEMERIS_TYPE = 0
CLASSIFICATION_TYPE = U
NORAD_CAT_ID   = 65866
ELEMENT_SET_NO = 999
REV_AT_EPOCH   = 372
BSTAR          = .22587E-2
MEAN_MOTION_DOT = .127532E-2
MEAN_MOTION_DDOT = 0

CCSDS_OMM_VERS = 2.0
CREATION_DATE  = 
ORIGINATOR     = 

OBJECT_NAME    = STARLINK-35456
OBJECT_ID      = 2025-223P
CENTER_NAME    = EARTH
REF_FRAME      = TEME
TIME_SYSTEM    = UTC
MEAN_ELEMENT_THEORY = SGP/SGP4

EPOCH          = 2025-10-27T03:30:01.742400
MEAN_MOTION    = 15.49344920
ECCENTRICITY   = .0001149
INCLINATION    = 53.1587
RA_OF_ASC_NODE = 197.0095
ARG_OF_PERICENTER = 89.4378
MEAN_ANOMALY   = 270.6762

EPHEMERIS_TYPE = 0
CLASSIFICATION_TYPE = U
NORAD_CAT_ID   = 65867
ELEMENT_SET_NO = 999
REV_AT_EPOCH   = 372
BSTAR          = .17303E-2
MEAN_MOTION_DOT = .97111E-3
MEAN_MOTION_DDOT = 0

CCSDS_OMM_VERS = 2.0
CREATION_DATE  = 
ORIGINATOR     = 

OBJECT_NAME    = STARLINK-35450
OBJECT_ID      = 2025-223Q
CENTER_NAME    = EARTH
REF_FRAME      = TEME
TIME_SYSTEM    = UTC
MEAN_ELEMENT_THEORY = SGP/SGP4

EPOCH          = 2025-10-27T04:00:01.998720
MEAN_MOTION    = 15.39485457
ECCENTRICITY   = .0001565
INCLINATION    = 53.1588
RA_OF_ASC_NODE = 196.9792
ARG_OF_PERICENTER = 63.7239
MEAN_ANOMALY   = 19.1082

EPHEMERIS_TYPE = 0
CLASSIFICATION_TYPE = U
NORAD_CAT_ID   = 65868
ELEMENT_SET_NO = 999
REV_AT_EPOCH   = 500
BSTAR          = .29387E-2
MEAN_MOTION_DOT = .118462E-2
MEAN_MOTION_DDOT = 0

CCSDS_OMM_VERS = 2.0
CREATION_DATE  = 
ORIGINATOR     = 

OBJECT_NAME    = STARLINK-35441
OBJECT_ID      = 2025-223R
CENTER_NAME    = EARTH
REF_FRAME      = TEME
TIME_SYSTEM    = UTC
MEAN_ELEMENT_THEORY = SGP/SGP4

EPOCH          = 2025-10-27T04:00:01.998720
MEAN_MOTION    = 15.39559086
ECCENTRICITY   = .0001116
INCLINATION    = 53.1588
RA_OF_ASC_NODE = 197.0294
ARG_OF_PERICENTER = 86.7063
MEAN_ANOMALY   = 330.2003

EPHEMERIS_TYPE = 0
CLASSIFICATION_TYPE = U
NORAD_CAT_ID   = 65869
ELEMENT_SET_NO = 999
REV_AT_EPOCH   = 500
BSTAR          = .26688E-2
MEAN_MOTION_DOT = .107652E-2
MEAN_MOTION_DDOT = 0

CCSDS_OMM_VERS = 2.0
CREATION_DATE  = 
ORIGINATOR     = 

OBJECT_NAME    = STARLINK-35433
OBJECT_ID      = 2025-223S
CENTER_NAME    = EARTH
REF_FRAME      = TEME
TIME_SYSTEM    = UTC
MEAN_ELEMENT_THEORY = SGP/SGP4

EPOCH          = 2025-10-27T04:00:01.998720
MEAN_MOTION    = 15.46007287
ECCENTRICITY   = .0001082
INCLINATION    = 53.1588
RA_OF_ASC_NODE = 196.9075
ARG_OF_PERICENTER = 64.4175
MEAN_ANOMALY   = 53.4739

EPHEMERIS_TYPE = 0
CLASSIFICATION_TYPE = U
NORAD_CAT_ID   = 65870
ELEMENT_SET_NO = 999
REV_AT_EPOCH   = 500
BSTAR          = -.45098E-1
MEAN_MOTION_DOT = -.1995751E-1
MEAN_MOTION_DDOT = 0

CCSDS_OMM_VERS = 2.0
CREATION_DATE  = 
ORIGINATOR     = 

OBJECT_NAME    = STARLINK-35465
OBJECT_ID      = 2025-223T
CENTER_NAME    = EARTH
REF_FRAME      = TEME
TIME_SYSTEM    = UTC
MEAN_ELEMENT_THEORY = SGP/SGP4

EPOCH          = 2025-10-27T04:00:01.998720
MEAN_MOTION    = 15.42333937
ECCENTRICITY   = .000101
INCLINATION    = 53.1591
RA_OF_ASC_NODE = 196.9333
ARG_OF_PERICENTER = 104.3512
MEAN_ANOMALY   = 1.0118

EPHEMERIS_TYPE = 0
CLASSIFICATION_TYPE = U
NORAD_CAT_ID   = 65871
ELEMENT_SET_NO = 999
REV_AT_EPOCH   = 500
BSTAR          = -.43151E-1
MEAN_MOTION_DOT = -.1685118E-1
MEAN_MOTION_DDOT = 0

CCSDS_OMM_VERS = 2.0
CREATION_DATE  = 
ORIGINATOR     = 

OBJECT_NAME    = STARLINK-34108
OBJECT_ID      = 2025-223U
CENTER_NAME    = EARTH
REF_FRAME      = TEME
TIME_SYSTEM    = UTC
MEAN_ELEMENT_THEORY = SGP/SGP4

EPOCH          = 2025-10-27T03:27:03.635712
MEAN_MOTION    = 15.49347652
ECCENTRICITY   = .0001138
INCLINATION    = 53.1594
RA_OF_ASC_NODE = 196.9955
ARG_OF_PERICENTER = 94.7609
MEAN_ANOMALY   = 265.3530

EPHEMERIS_TYPE = 0
CLASSIFICATION_TYPE = U
NORAD_CAT_ID   = 65872
ELEMENT_SET_NO = 999
REV_AT_EPOCH   = 372
BSTAR          = .16045E-2
MEAN_MOTION_DOT = .89942E-3
MEAN_MOTION_DDOT = 0

CCSDS_OMM_VERS = 2.0
CREATION_DATE  = 
ORIGINATOR     = 

OBJECT_NAME    = STARLINK-35423
OBJECT_ID      = 2025-223V
CENTER_NAME    = EARTH
REF_FRAME      = TEME
TIME_SYSTEM    = UTC
MEAN_ELEMENT_THEORY = SGP/SGP4

EPOCH          = 2025-10-27T03:26:34.069632
MEAN_MOTION    = 15.49341122
ECCENTRICITY   = .0001198
INCLINATION    = 53.1595
RA_OF_ASC_NODE = 196.9930
ARG_OF_PERICENTER = 84.8727
MEAN_ANOMALY   = 275.2418

EPHEMERIS_TYPE = 0
CLASSIFICATION_TYPE = U
NORAD_CAT_ID   = 65873
ELEMENT_SET_NO = 999
REV_AT_EPOCH   = 372
BSTAR          = .15893E-2
MEAN_MOTION_DOT = .89055E-3
MEAN_MOTION_DDOT = 0

CCSDS_OMM_VERS = 2.0
CREATION_DATE  = 
ORIGINATOR     = 

OBJECT_NAME    = STARLINK-35425
OBJECT_ID      = 2025-223W
CENTER_NAME    = EARTH
REF_FRAME      = TEME
TIME_SYSTEM    = UTC
MEAN_ELEMENT_THEORY = SGP/SGP4

EPOCH          = 2025-10-27T03:27:34.866720
MEAN_MOTION    = 15.49204393
ECCENTRICITY   = .0000418
INCLINATION    = 53.1594
RA_OF_ASC_NODE = 196.9983
ARG_OF_PERICENTER = 60.5923
MEAN_ANOMALY   = 299.5128

EPHEMERIS_TYPE = 0
CLASSIFICATION_TYPE = U
NORAD_CAT_ID   = 65874
ELEMENT_SET_NO = 999
REV_AT_EPOCH   = 372
BSTAR          = -.25911E-3
MEAN_MOTION_DOT = -.14777E-3
MEAN_MOTION_DDOT = 0

CCSDS_OMM_VERS = 2.0
CREATION_DATE  = 
ORIGINATOR     = 

OBJECT_NAME    = STARLINK-34688
OBJECT_ID      = 2025-223X
CENTER_NAME    = EARTH
REF_FRAME      = TEME
TIME_SYSTEM    = UTC
MEAN_ELEMENT_THEORY = SGP/SGP4

EPOCH          = 2025-10-27T03:26:04.278048
MEAN_MOTION    = 15.49344243
ECCENTRICITY   = .0001116
INCLINATION    = 53.1588
RA_OF_ASC_NODE = 196.9907
ARG_OF_PERICENTER = 94.7574
MEAN_ANOMALY   = 265.3562

EPHEMERIS_TYPE = 0
CLASSIFICATION_TYPE = U
NORAD_CAT_ID   = 65875
ELEMENT_SET_NO = 999
REV_AT_EPOCH   = 372
BSTAR          = .15053E-2
MEAN_MOTION_DOT = .84285E-3
MEAN_MOTION_DDOT = 0

CCSDS_OMM_VERS = 2.0
CREATION_DATE  = 
ORIGINATOR     = 

OBJECT_NAME    = STARLINK-34438
OBJECT_ID      = 2025-223Y
CENTER_NAME    = EARTH
REF_FRAME      = TEME
TIME_SYSTEM    = UTC
MEAN_ELEMENT_THEORY = SGP/SGP4

EPOCH          = 2025-10-27T03:25:34.626432
MEAN_MOTION    = 15.49344218
ECCENTRICITY   = .000115
INCLINATION    = 53.1590
RA_OF_ASC_NODE = 196.9892
ARG_OF_PERICENTER = 94.1562
MEAN_ANOMALY   = 265.9578

EPHEMERIS_TYPE = 0
CLASSIFICATION_TYPE = U
NORAD_CAT_ID   = 65876
ELEMENT_SET_NO = 999
REV_AT_EPOCH   = 372
BSTAR          = .15368E-2
MEAN_MOTION_DOT = .86074E-3
MEAN_MOTION_DDOT = 0

